OUFTI-1                 
1 41458U 16025C   22183.40356719  .00008126  00000+0  34451-3 0  9993
2 41458  98.1880 351.1305 0141071 213.7959 145.4221 15.14764753339845
E-ST@R-II               
1 41459U 16025D   22183.89276639  .00005761  00000+0  25124-3 0  9998
2 41459  98.1862 350.1906 0144228 216.5177 142.6122 15.13662374339835
AAUSAT 4                
1 41460U 16025E   22183.94909448  .00011591  00000+0  44250-3 0  9996
2 41460  98.1783 356.5914 0124856 192.0192 167.8076 15.19771803340291
AIST-2D (RS-48)         
1 41465U 16026B   22183.25451700  .00005771  00000+0  13818-3 0  9998
2 41465  97.0541  59.1044 0011546  81.3541  45.9094 15.41748770345816
NUSAT-1 (FRESCO)        
1 41557U 16033B   22183.90042735  .00006011  00000+0  17931-3 0  9992
2 41557  97.3898 281.6266 0009408 328.5758 139.8070 15.34987435339752
NUSAT-2 (BATATA)        
1 41558U 16033C   22183.90157169  .00005740  00000+0  16136-3 0  9995
2 41558  97.4096 287.4139 0008718 316.2440 112.0001 15.36882371340026
CARTOSAT-2C             
1 41599U 16040A   22183.89325566  .00001878  00000+0  92220-4 0  9991
2 41599  97.4863 243.3618 0014950 127.4092 347.2153 15.19222440334272
SATHYABAMASAT           
1 41600U 16040B   22183.36208468  .00009861  00000+0  30886-3 0  9996
2 41600  97.2184 235.4314 0012721  73.6317 286.6323 15.33209732335181
LAPAN-A3                
1 41603U 16040E   22183.44297596  .00000718  00000+0  35556-4 0  9990
2 41603  97.2048 219.8188 0014854 105.7573   9.7796 15.20706392334310
BIROS                   
1 41604U 16040F   22183.88558221  .00001918  00000+0  80834-4 0  9996
2 41604  97.2096 227.7109 0013465  80.8764 279.3997 15.24424144334816
SWAYAM                  
1 41607U 16040J   22183.58256679  .00009897  00000+0  31888-3 0  9996
2 41607  97.2136 233.9103 0012596  73.9716 286.2912 15.32304585335091
BEESAT-4                
1 41619U 16040W   22183.66773753  .00008840  00000+0  29277-3 0  9991
2 41619  97.2150 233.8929 0010917  69.7533 290.4882 15.31472895323055
3CAT-2                  
1 41732U 16051B   22183.75377936  .00005227  00000+0  16217-3 0  9998
2 41732  97.3843 106.8428 0009282 231.7185 188.8576 15.33803297327679
PRATHAM                 
1 41783U 16059A   22183.53863363  .00000210  00000+0  49191-4 0  9997
2 41783  97.9121 224.4889 0034646 125.0326 235.4136 14.63368651307831
ALSAT 1N                
1 41789U 16059G   22183.37959890  .00000405  00000+0  84250-4 0  9997
2 41789  97.9164 228.9435 0029601 108.6335 251.8087 14.64704311308052
LISHUI 1-01             
1 41845U 16066E   22183.95420153  .00018581  00000+0  18729-2 0  9997
2 41845  98.7396 316.2377 0214330  20.4310 340.5669 14.75583115299113
CARTOSAT-2D             
1 41948U 17008A   22183.57638624  .00001835  00000+0  90395-4 0  9995
2 41948  97.4639 243.0552 0005371 270.5581  89.5007 15.19208762298099
NAYIF-1 (EO-88)         
1 42017U 17008BX  22183.42900379  .00008938  00000+0  26528-3 0  9993
2 42017  97.2677 249.3286 0005531 172.5178 187.6149 15.35017504299370
ZHUHAI-1 02 (CAS-4B)    
1 42759U 17034B   22183.91819979  .00001801  00000+0  11588-3 0  9996
2 42759  43.0172 247.4554 0008828  16.5450 152.2785 15.12006321278697
ZHUHAI-1 01 (CAS-4A)    
1 42761U 17034D   22183.88689427  .00001591  00000+0  10364-3 0  9995
2 42761  43.0175 246.4000 0009249  19.1115 149.1341 15.12089989278697
UCLSAT                  
1 42765U 17036A   22183.56302062  .00006732  00000+0  23372-3 0  9998
2 42765  97.1953 225.7559 0007277 267.0290  93.0119 15.30063742280165
NIUSAT                  
1 42766U 17036B   22183.53812530  .00004522  00000+0  17529-3 0  9994
2 42766  97.2001 220.8215 0011522 272.9718  87.0203 15.26568010279106
CARTOSAT-2E             
1 42767U 17036C   22183.87437015  .00001859  00000+0  91516-4 0  9992
2 42767  97.4534 244.1760 0006388 335.1243 112.3042 15.19215564278706
LITUANICASAT-2          
1 42768U 17036D   22183.64708337  .00015940  00000+0  45332-3 0  9996
2 42768  97.2038 228.6800 0008793 241.2618 118.7744 15.36186666279586
AALTO-1                 
1 42775U 17036L   22183.58341764  .00003409  00000+0  13598-3 0  9990
2 42775  97.1959 220.7638 0010497 272.3607  87.6430 15.25791773279084
URSA MAIOR              
1 42776U 17036M   22183.55877703  .00004094  00000+0  15999-3 0  9993
2 42776  97.1971 221.4830 0010157 270.7894  89.2181 15.26365230279115
COMPASS 2               
1 42777U 17036N   22183.57339099  .00010662  00000+0  33678-3 0  9999
2 42777  97.2026 227.9092 0007714 248.4896 111.5525 15.32968852279463
MAX VALIER SAT          
1 42778U 17036P   22183.39429186  .00004053  00000+0  15458-3 0  9990
2 42778  97.2033 223.9829 0008684 272.0649  87.9596 15.27200408279185
PEGASUS                 
1 42784U 17036V   22183.55941089  .00006221  00000+0  22230-3 0  9991
2 42784  97.1971 225.0033 0008102 271.6907  88.3405 15.29147447279324
NUDTSAT                 
1 42787U 17036Y   22183.62904154  .00010975  00000+0  33433-3 0  9992
2 42787  97.2009 229.2780 0006711 252.6756 107.3753 15.34122624279425
SUCHAI                  
1 42788U 17036Z   22183.40694602  .00006892  00000+0  23265-3 0  9998
2 42788  97.1979 226.5272 0007330 264.3699  95.6706 15.30969698279479
SKCUBE                  
1 42789U 17036AA  22183.41101721  .00006207  00000+0  21485-3 0  9997
2 42789  97.1977 225.9821 0007406 266.4763  93.5632 15.30192825279363
VZLUSAT-1               
1 42790U 17036AB  22183.57270921  .00011231  00000+0  34373-3 0  9998
2 42790  97.2004 229.1895 0006464 251.6100 108.4441 15.33970069279561
ROBUSTA-1B              
1 42792U 17036AD  22183.55778805  .00007522  00000+0  25562-3 0  9990
2 42792  97.1975 226.6968 0006983 265.3190  94.7254 15.30723776279432
D-SAT                   
1 42794U 17036AF  22183.56431866  .00001751  00000+0  15126-3 0  9999
2 42794  97.4507 188.1760 0123984  35.3074 325.6278 14.92699895273737
NORSAT 2                
1 42828U 17042D   22183.57486785  .00000712  00000+0  73747-4 0  9995
2 42828  97.4286  39.0883 0012891 319.1836  40.8418 14.92874714270422
TECHNOSAT               
1 42829U 17042E   22183.57692208  .00000379  00000+0  42634-4 0  9995
2 42829  97.4195  36.8320 0012934 322.5658  37.4660 14.91893719270348
2017-042F               
1 42830U 17042F   22183.58962917  .00001884  00000+0  17671-3 0  9999
2 42830  97.4332  41.3208 0012175 310.6452  49.3710 14.95077732270549
FLYING LAPTOP           
1 42831U 17042G   22183.48721975  .00000934  00000+0  97652-4 0  9999
2 42831  97.4218  37.0701 0012770 323.1571  36.8789 14.91809781270332
CORVUS BC2              
1 42846U 17042X   22183.56342312  .00000620  00000+0  64799-4 0  9996
2 42846  97.4215  40.0171 0008201 313.6546  46.3993 14.92928853270538
CORVUS BC1              
1 42847U 17042Y   22183.57593550  .00000390  00000+0  42537-4 0  9990
2 42847  97.4215  40.3373 0007833 312.8239  47.2322 14.93032993270545
SIMPL                   
1 42983U 98067NF  22183.84067406  .00254445  40299-4  36536-3 0  9995
2 42983  51.6259  99.1603 0001982  81.3445 278.7791 16.04929150267406
CZ-4C R/B               
1 43012U 17072C   22183.52403637  .00000084  00000+0  29155-4 0  9990
2 43012  98.6962 220.2875 0126016 271.4384  87.2380 14.56356447246053
RADFXSAT (FOX-1B)       
1 43017U 17073E   22183.43445062  .00001596  00000+0  12338-3 0  9997
2 43017  97.6737  77.0155 0249382 138.5248 223.5192 14.81463073249332
EAGLESAT 1              
1 43018U 17073F   22183.55743239  .00003009  00000+0  22017-3 0  9994
2 43018  97.6766  78.9560 0242135 131.9475 230.2658 14.83735612249338
INS-1C                  
1 43116U 18004F   22183.81597715  .00006863  00000+0  23701-3 0  9995
2 43116  97.3755 259.7299 0006042 302.0291  58.0362 15.30251706248687
FLOCK 3P'-3             
1 43119U 18004J   22183.50201825  .00002707  00000+0  10402-3 0  9995
2 43119  97.3746 257.3854 0007644 317.7670  42.2979 15.27269565248513
FLOCK 3P'-2             
1 43120U 18004K   22183.51317714  .00002971  00000+0  11537-3 0  9996
2 43120  97.3752 257.0018 0007493 320.0082  40.0604 15.26845051248483
FLOCK 3P'-1             
1 43121U 18004L   22183.45788128  .00013145  00000+0  36324-3 0  9997
2 43121  97.3770 262.0461 0004912 283.5958  76.4740 15.37160279248747
FLOCK 3P'-4             
1 43122U 18004M   22183.43392406  .00002738  00000+0  10652-3 0  9998
2 43122  97.3759 257.0941 0007453 322.6623  37.4098 15.26850260248476
MICROMAS-2A             
1 43131U 18004W   22183.46089754  .00015472  00000+0  43157-3 0  9995
2 43131  97.3753 262.7798 0004423 291.6671  68.4102 15.36831963248880
PICSAT                  
1 43132U 18004X   22183.45475749  .00007055  00000+0  23268-3 0  9997
2 43132  97.3716 259.7526 0005824 310.3197  49.7535 15.31734801248704
CNUSAIL-1               
1 43133U 18004Y   22183.48540022  .00004859  00000+0  17599-3 0  9997
2 43133  97.3672 257.6995 0006713 317.1183  42.9533 15.28841386248594
2018-004Z               
1 43134U 18004Z   22183.72934723  .00006482  00000+0  22241-3 0  9994
2 43134  97.3698 259.2759 0006141 311.8423  48.2293 15.30485041248690
FOX-1D (AO-92)          
1 43137U 18004AC  22183.46965789  .00005454  00000+0  19255-3 0  9993
2 43137  97.3681 258.4927 0006097 316.0365  44.0389 15.29624684248646
STEP CUBE LAB           
1 43138U 18004AD  22183.20880876  .00009791  00000+0  29226-3 0  9996
2 43138  97.3751 261.8721 0004758 305.0524  55.0273 15.34818279248805
XIAOXIANG-2             
1 43155U 18008A   22183.88844566  .00004017  00000+0  21458-3 0  9994
2 43155  97.3517 241.7916 0018113  92.6747  21.8816 15.15520101245616
ZHOU ENLAI              
1 43156U 18008B   22183.91696667  .00004066  00000+0  21869-3 0  9996
2 43156  97.3569 241.6987 0015316  92.9420  81.7546 15.15310698245549
QUANTUTONG 1            
1 43158U 18008D   22183.88879811  .00003509  00000+0  19499-3 0  9995
2 43158  97.3525 239.6202 0014812  92.4576 321.9878 15.14242717245448
